ONEWEB-0701             
1 61607U 24188P   26130.20774909  .00000726  00000+0  20435-2 0  9993
2 61607  87.8855  43.8225 0001340  54.3668 305.7584 13.10372752 78331
ONEWEB-0702             
1 61608U 24188Q   26130.17634362  .00000425  00000+0  11647-2 0  9999
2 61608  87.8937  28.5406 0000887  58.6287 301.4928 13.11414244 79502
ONEWEB-0704             
1 61609U 24188R   26130.19610297 -.00001546  00000+0 -44648-2 0  9997
2 61609  87.8884  43.8104 0000634  83.6226 276.4974 13.10383380 78315
ONEWEB-0705             
1 61610U 24188S   26130.20111502  .00000717  00000+0  20176-2 0  9993
2 61610  87.8868  43.8165 0001260 115.6746 244.4512 13.10375965 70488
ONEWEB-0706             
1 61611U 24188T   26130.18615258 -.00000135  00000+0 -42388-3 0  9994
2 61611  87.8861  43.8271 0001251  79.9249 280.2020 13.10375386 78409
ONEWEB-0707             
1 61612U 24188U   26130.19280351  .00000231  00000+0  62482-3 0  9990
2 61612  87.8866  43.8176 0001276  76.8290 283.2980 13.10375775 78341
ONEWEB-0708             
1 61613U 24188V   26130.21107439  .00000737  00000+0  20746-2 0  9996
2 61613  87.8854  43.8358 0001835  96.6353 263.4983 13.10371589 78322
