[{"OBJECT_NAME":"ONEWEB-0701","OBJECT_ID":"2024-188P","EPOCH":"2026-05-10T04:59:09.521376","MEAN_MOTION":13.10372752,"ECCENTRICITY":0.000134,"INCLINATION":87.8855,"RA_OF_ASC_NODE":43.8225,"ARG_OF_PERICENTER":54.3668,"MEAN_ANOMALY":305.7584,"EPHEMERIS_TYPE":0,"CLASSIFICATION_TYPE":"U","NORAD_CAT_ID":61607,"ELEMENT_SET_NO":999,"REV_AT_EPOCH":7833,"BSTAR":0.0020435,"MEAN_MOTION_DOT":7.26e-06,"MEAN_MOTION_DDOT":0.0},{"OBJECT_NAME":"ONEWEB-0702","OBJECT_ID":"2024-188Q","EPOCH":"2026-05-10T04:13:56.088768","MEAN_MOTION":13.11414244,"ECCENTRICITY":8.87e-05,"INCLINATION":87.8937,"RA_OF_ASC_NODE":28.5406,"ARG_OF_PERICENTER":58.6287,"MEAN_ANOMALY":301.4928,"EPHEMERIS_TYPE":0,"CLASSIFICATION_TYPE":"U","NORAD_CAT_ID":61608,"ELEMENT_SET_NO":999,"REV_AT_EPOCH":7950,"BSTAR":0.0011647,"MEAN_MOTION_DOT":4.25e-06,"MEAN_MOTION_DDOT":0.0},{"OBJECT_NAME":"ONEWEB-0704","OBJECT_ID":"2024-188R","EPOCH":"2026-05-10T04:42:23.296608","MEAN_MOTION":13.1038338,"ECCENTRICITY":6.34e-05,"INCLINATION":87.8884,"RA_OF_ASC_NODE":43.8104,"ARG_OF_PERICENTER":83.6226,"MEAN_ANOMALY":276.4974,"EPHEMERIS_TYPE":0,"CLASSIFICATION_TYPE":"U","NORAD_CAT_ID":61609,"ELEMENT_SET_NO":999,"REV_AT_EPOCH":7831,"BSTAR":-0.0044648,"MEAN_MOTION_DOT":-1.546e-05,"MEAN_MOTION_DDOT":0.0},{"OBJECT_NAME":"ONEWEB-0705","OBJECT_ID":"2024-188S","EPOCH":"2026-05-10T04:49:36.337728","MEAN_MOTION":13.10375965,"ECCENTRICITY":0.000126,"INCLINATION":87.8868,"RA_OF_ASC_NODE":43.8165,"ARG_OF_PERICENTER":115.6746,"MEAN_ANOMALY":244.4512,"EPHEMERIS_TYPE":0,"CLASSIFICATION_TYPE":"U","NORAD_CAT_ID":61610,"ELEMENT_SET_NO":999,"REV_AT_EPOCH":7048,"BSTAR":0.0020176,"MEAN_MOTION_DOT":7.17e-06,"MEAN_MOTION_DDOT":0.0},{"OBJECT_NAME":"ONEWEB-0706","OBJECT_ID":"2024-188T","EPOCH":"2026-05-10T04:28:03.582912","MEAN_MOTION":13.10375386,"ECCENTRICITY":0.0001251,"INCLINATION":87.8861,"RA_OF_ASC_NODE":43.8271,"ARG_OF_PERICENTER":79.9249,"MEAN_ANOMALY":280.202,"EPHEMERIS_TYPE":0,"CLASSIFICATION_TYPE":"U","NORAD_CAT_ID":61611,"ELEMENT_SET_NO":999,"REV_AT_EPOCH":7840,"BSTAR":-0.00042388,"MEAN_MOTION_DOT":-1.35e-06,"MEAN_MOTION_DDOT":0.0},{"OBJECT_NAME":"ONEWEB-0707","OBJECT_ID":"2024-188U","EPOCH":"2026-05-10T04:37:38.223264","MEAN_MOTION":13.10375775,"ECCENTRICITY":0.0001276,"INCLINATION":87.8866,"RA_OF_ASC_NODE":43.8176,"ARG_OF_PERICENTER":76.829,"MEAN_ANOMALY":283.298,"EPHEMERIS_TYPE":0,"CLASSIFICATION_TYPE":"U","NORAD_CAT_ID":61612,"ELEMENT_SET_NO":999,"REV_AT_EPOCH":7834,"BSTAR":0.0006248200000000001,"MEAN_MOTION_DOT":2.31e-06,"MEAN_MOTION_DDOT":0.0},{"OBJECT_NAME":"ONEWEB-0708","OBJECT_ID":"2024-188V","EPOCH":"2026-05-10T05:03:56.827296","MEAN_MOTION":13.10371589,"ECCENTRICITY":0.0001835,"INCLINATION":87.8854,"RA_OF_ASC_NODE":43.8358,"ARG_OF_PERICENTER":96.6353,"MEAN_ANOMALY":263.4983,"EPHEMERIS_TYPE":0,"CLASSIFICATION_TYPE":"U","NORAD_CAT_ID":61613,"ELEMENT_SET_NO":999,"REV_AT_EPOCH":7832,"BSTAR":0.0020746000000000002,"MEAN_MOTION_DOT":7.37e-06,"MEAN_MOTION_DDOT":0.0}]